[{"OBJECT_NAME":"STARLINK-6092","OBJECT_ID":"2023-046AE","EPOCH":"2025-09-01T06:29:47.985792","MEAN_MOTION":15.02537074,"ECCENTRICITY":0.00012852,"INCLINATION":43.0039,"RA_OF_ASC_NODE":95.6354,"ARG_OF_PERICENTER":261.7745,"MEAN_ANOMALY":98.2952,"EPHEMERIS_TYPE":0,"CLASSIFICATION_TYPE":"U","NORAD_CAT_ID":56121,"ELEMENT_SET_NO":999,"REV_AT_EPOCH":13371,"BSTAR":3.4459636e-5,"MEAN_MOTION_DOT":2.62e-6,"MEAN_MOTION_DDOT":0},{"OBJECT_NAME":"STARLINK-6094","OBJECT_ID":"2023-046AF","EPOCH":"2025-09-01T08:11:22.524288","MEAN_MOTION":15.02538887,"ECCENTRICITY":0.00012785,"INCLINATION":43.0031,"RA_OF_ASC_NODE":107.4202,"ARG_OF_PERICENTER":265.2138,"MEAN_ANOMALY":94.8559,"EPHEMERIS_TYPE":0,"CLASSIFICATION_TYPE":"U","NORAD_CAT_ID":56122,"ELEMENT_SET_NO":999,"REV_AT_EPOCH":13358,"BSTAR":6.0691933e-5,"MEAN_MOTION_DOT":6.16e-6,"MEAN_MOTION_DDOT":0},{"OBJECT_NAME":"STARLINK-6115","OBJECT_ID":"2023-046AH","EPOCH":"2025-08-31T23:49:18.440256","MEAN_MOTION":15.02536144,"ECCENTRICITY":0.0001274,"INCLINATION":43.0025,"RA_OF_ASC_NODE":96.9894,"ARG_OF_PERICENTER":268.4399,"MEAN_ANOMALY":91.6297,"EPHEMERIS_TYPE":0,"CLASSIFICATION_TYPE":"U","NORAD_CAT_ID":56123,"ELEMENT_SET_NO":999,"REV_AT_EPOCH":13367,"BSTAR":0.00010015198,"MEAN_MOTION_DOT":1.15e-5,"MEAN_MOTION_DDOT":0},{"OBJECT_NAME":"STARLINK-6126","OBJECT_ID":"2023-046AJ","EPOCH":"2025-08-31T22:32:45.699648","MEAN_MOTION":15.02538697,"ECCENTRICITY":0.00014846,"INCLINATION":43.0036,"RA_OF_ASC_NODE":97.449,"ARG_OF_PERICENTER":269.7013,"MEAN_ANOMALY":90.3659,"EPHEMERIS_TYPE":0,"CLASSIFICATION_TYPE":"U","NORAD_CAT_ID":56124,"ELEMENT_SET_NO":999,"REV_AT_EPOCH":13366,"BSTAR":1.029214e-5,"MEAN_MOTION_DOT":-6.5e-7,"MEAN_MOTION_DDOT":0},{"OBJECT_NAME":"STARLINK-6119","OBJECT_ID":"2023-046AK","EPOCH":"2025-08-31T23:54:05.826528","MEAN_MOTION":15.02519328,"ECCENTRICITY":0.00023932,"INCLINATION":43.0034,"RA_OF_ASC_NODE":97.0097,"ARG_OF_PERICENTER":279.4209,"MEAN_ANOMALY":80.6363,"EPHEMERIS_TYPE":0,"CLASSIFICATION_TYPE":"U","NORAD_CAT_ID":56125,"ELEMENT_SET_NO":999,"REV_AT_EPOCH":13367,"BSTAR":0.00017527939,"MEAN_MOTION_DOT":2.164e-5,"MEAN_MOTION_DDOT":0},{"OBJECT_NAME":"STARLINK-6124","OBJECT_ID":"2023-046AL","EPOCH":"2025-09-01T07:43:08.568480","MEAN_MOTION":15.02550535,"ECCENTRICITY":0.00013816,"INCLINATION":43.0032,"RA_OF_ASC_NODE":95.1531,"ARG_OF_PERICENTER":269.4151,"MEAN_ANOMALY":90.6533,"EPHEMERIS_TYPE":0,"CLASSIFICATION_TYPE":"U","NORAD_CAT_ID":56126,"ELEMENT_SET_NO":999,"REV_AT_EPOCH":13372,"BSTAR":-9.823378e-5,"MEAN_MOTION_DOT":-1.531e-5,"MEAN_MOTION_DDOT":0},{"OBJECT_NAME":"STARLINK-6104","OBJECT_ID":"2023-046AM","EPOCH":"2025-09-01T07:31:57.509184","MEAN_MOTION":15.02537206,"ECCENTRICITY":0.00012146,"INCLINATION":43.0026,"RA_OF_ASC_NODE":95.0921,"ARG_OF_PERICENTER":273.3959,"MEAN_ANOMALY":86.6744,"EPHEMERIS_TYPE":0,"CLASSIFICATION_TYPE":"U","NORAD_CAT_ID":56127,"ELEMENT_SET_NO":999,"REV_AT_EPOCH":13372,"BSTAR":9.3087831e-5,"MEAN_MOTION_DOT":1.054e-5,"MEAN_MOTION_DDOT":0},{"OBJECT_NAME":"STARLINK-6122","OBJECT_ID":"2023-046AN","EPOCH":"2025-08-31T23:57:17.612064","MEAN_MOTION":15.02537567,"ECCENTRICITY":0.0001178,"INCLINATION":43.0029,"RA_OF_ASC_NODE":97.0245,"ARG_OF_PERICENTER":266.3388,"MEAN_ANOMALY":93.7319,"EPHEMERIS_TYPE":0,"CLASSIFICATION_TYPE":"U","NORAD_CAT_ID":56128,"ELEMENT_SET_NO":999,"REV_AT_EPOCH":13367,"BSTAR":8.2303963e-5,"MEAN_MOTION_DOT":9.08e-6,"MEAN_MOTION_DDOT":0},{"OBJECT_NAME":"STARLINK-6121","OBJECT_ID":"2023-046AP","EPOCH":"2025-09-01T10:49:43.042368","MEAN_MOTION":15.02533234,"ECCENTRICITY":0.00012675,"INCLINATION":43.004,"RA_OF_ASC_NODE":42.5106,"ARG_OF_PERICENTER":272.4214,"MEAN_ANOMALY":87.6484,"EPHEMERIS_TYPE":0,"CLASSIFICATION_TYPE":"U","NORAD_CAT_ID":56129,"ELEMENT_SET_NO":999,"REV_AT_EPOCH":13434,"BSTAR":9.0420036e-5,"MEAN_MOTION_DOT":1.018e-5,"MEAN_MOTION_DDOT":0},{"OBJECT_NAME":"STARLINK-6117","OBJECT_ID":"2023-046AQ","EPOCH":"2025-09-01T07:38:21.328224","MEAN_MOTION":15.02538979,"ECCENTRICITY":0.00011128,"INCLINATION":43.0043,"RA_OF_ASC_NODE":95.1317,"ARG_OF_PERICENTER":269.1438,"MEAN_ANOMALY":90.9277,"EPHEMERIS_TYPE":0,"CLASSIFICATION_TYPE":"U","NORAD_CAT_ID":56130,"ELEMENT_SET_NO":999,"REV_AT_EPOCH":13372,"BSTAR":3.9178051e-5,"MEAN_MOTION_DOT":3.26e-6,"MEAN_MOTION_DDOT":0},{"OBJECT_NAME":"STARLINK-6120","OBJECT_ID":"2023-046AR","EPOCH":"2025-09-01T07:17:34.712736","MEAN_MOTION":15.02536443,"ECCENTRICITY":0.0001147,"INCLINATION":43.0033,"RA_OF_ASC_NODE":95.0175,"ARG_OF_PERICENTER":276.4176,"MEAN_ANOMALY":83.6535,"EPHEMERIS_TYPE":0,"CLASSIFICATION_TYPE":"U","NORAD_CAT_ID":56131,"ELEMENT_SET_NO":999,"REV_AT_EPOCH":13372,"BSTAR":5.424539e-5,"MEAN_MOTION_DOT":5.29e-6,"MEAN_MOTION_DDOT":0},{"OBJECT_NAME":"STARLINK-6071","OBJECT_ID":"2023-046AS","EPOCH":"2025-09-01T07:33:32.755680","MEAN_MOTION":15.02551186,"ECCENTRICITY":0.00013888,"INCLINATION":43.0038,"RA_OF_ASC_NODE":95.1047,"ARG_OF_PERICENTER":260.8987,"MEAN_ANOMALY":99.1699,"EPHEMERIS_TYPE":0,"CLASSIFICATION_TYPE":"U","NORAD_CAT_ID":56132,"ELEMENT_SET_NO":999,"REV_AT_EPOCH":13372,"BSTAR":0.0002687473,"MEAN_MOTION_DOT":3.43e-5,"MEAN_MOTION_DDOT":0},{"OBJECT_NAME":"STARLINK-5566","OBJECT_ID":"2023-046AT","EPOCH":"2025-09-01T07:03:11.524896","MEAN_MOTION":15.02537417,"ECCENTRICITY":0.00012087,"INCLINATION":43.0023,"RA_OF_ASC_NODE":94.9418,"ARG_OF_PERICENTER":266.5293,"MEAN_ANOMALY":93.5411,"EPHEMERIS_TYPE":0,"CLASSIFICATION_TYPE":"U","NORAD_CAT_ID":56133,"ELEMENT_SET_NO":999,"REV_AT_EPOCH":13372,"BSTAR":5.6854767e-5,"MEAN_MOTION_DOT":5.65e-6,"MEAN_MOTION_DDOT":0},{"OBJECT_NAME":"STARLINK-5564","OBJECT_ID":"2023-046AU","EPOCH":"2025-09-01T07:28:46.243776","MEAN_MOTION":15.02534347,"ECCENTRICITY":0.00013456,"INCLINATION":43.0035,"RA_OF_ASC_NODE":95.0789,"ARG_OF_PERICENTER":265.3553,"MEAN_ANOMALY":94.7136,"EPHEMERIS_TYPE":0,"CLASSIFICATION_TYPE":"U","NORAD_CAT_ID":56134,"ELEMENT_SET_NO":999,"REV_AT_EPOCH":13372,"BSTAR":6.8612136e-5,"MEAN_MOTION_DOT":7.23e-6,"MEAN_MOTION_DDOT":0},{"OBJECT_NAME":"STARLINK-5489","OBJECT_ID":"2023-046AW","EPOCH":"2025-09-01T07:22:22.498176","MEAN_MOTION":15.02535638,"ECCENTRICITY":0.0001188,"INCLINATION":43.0049,"RA_OF_ASC_NODE":95.0441,"ARG_OF_PERICENTER":279.2008,"MEAN_ANOMALY":80.87,"EPHEMERIS_TYPE":0,"CLASSIFICATION_TYPE":"U","NORAD_CAT_ID":56136,"ELEMENT_SET_NO":999,"REV_AT_EPOCH":13372,"BSTAR":6.622305e-6,"MEAN_MOTION_DOT":-1.14e-6,"MEAN_MOTION_DDOT":0},{"OBJECT_NAME":"STARLINK-5090","OBJECT_ID":"2023-046AX","EPOCH":"2025-09-01T06:50:24.422496","MEAN_MOTION":15.02536778,"ECCENTRICITY":0.00012131,"INCLINATION":43.0042,"RA_OF_ASC_NODE":94.8739,"ARG_OF_PERICENTER":270.9775,"MEAN_ANOMALY":89.0929,"EPHEMERIS_TYPE":0,"CLASSIFICATION_TYPE":"U","NORAD_CAT_ID":56137,"ELEMENT_SET_NO":999,"REV_AT_EPOCH":13372,"BSTAR":5.9337535e-5,"MEAN_MOTION_DOT":5.98e-6,"MEAN_MOTION_DDOT":0}]
