STARLINK-6092           
1 56121U 23046AE  25244.27069428  .00000262  00000+0  34460-4 0  9995
2 56121  43.0039  95.6354 0001285 261.7745  98.2952 15.02537074133710
STARLINK-6094           
1 56122U 23046AF  25244.34123292  .00000616  00000+0  60692-4 0  9993
2 56122  43.0031 107.4202 0001278 265.2138  94.8559 15.02538887133587
STARLINK-6115           
1 56123U 23046AH  25243.99257454  .00001150  00000+0  10015-3 0  9999
2 56123  43.0025  96.9894 0001274 268.4399  91.6297 15.02536144133678
STARLINK-6126           
1 56124U 23046AJ  25243.93941782 -.00000065  00000+0  10292-4 0  9991
2 56124  43.0036  97.4490 0001484 269.7013  90.3659 15.02538697133661
STARLINK-6119           
1 56125U 23046AK  25243.99590077  .00002164  00000+0  17528-3 0  9994
2 56125  43.0034  97.0097 0002393 279.4209  80.6363 15.02519328133679
STARLINK-6124           
1 56126U 23046AL  25244.32162695 -.00001531  00000+0 -98234-4 0  9997
2 56126  43.0032  95.1531 0001381 269.4151  90.6533 15.02550535133722
STARLINK-6104           
1 56127U 23046AM  25244.31386006  .00001054  00000+0  93088-4 0  9991
2 56127  43.0026  95.0921 0001214 273.3959  86.6744 15.02537206133722
STARLINK-6122           
1 56128U 23046AN  25243.99812051  .00000908  00000+0  82304-4 0  9995
2 56128  43.0029  97.0245 0001178 266.3388  93.7319 15.02537567133675
STARLINK-6121           
1 56129U 23046AP  25244.45119262  .00001018  00000+0  90420-4 0  9993
2 56129  43.0040  42.5106 0001267 272.4214  87.6484 15.02533234134342
STARLINK-6117           
1 56130U 23046AQ  25244.31830241  .00000326  00000+0  39178-4 0  9991
2 56130  43.0043  95.1317 0001112 269.1438  90.9277 15.02538979133724
STARLINK-6120           
1 56131U 23046AR  25244.30387399  .00000529  00000+0  54245-4 0  9999
2 56131  43.0033  95.0175 0001147 276.4176  83.6535 15.02536443133723
STARLINK-6071           
1 56132U 23046AS  25244.31496245  .00003430  00000+0  26875-3 0  9993
2 56132  43.0038  95.1047 0001388 260.8987  99.1699 15.02551186133726
STARLINK-5566           
1 56133U 23046AT  25244.29388339  .00000565  00000+0  56855-4 0  9993
2 56133  43.0023  94.9418 0001208 266.5293  93.5411 15.02537417133725
STARLINK-5564           
1 56134U 23046AU  25244.31164634  .00000723  00000+0  68612-4 0  9997
2 56134  43.0035  95.0789 0001345 265.3553  94.7136 15.02534347133726
STARLINK-5489           
1 56136U 23046AW  25244.30720484 -.00000114  00000+0  66223-5 0  9991
2 56136  43.0049  95.0441 0001188 279.2008  80.8700 15.02535638133729
STARLINK-5090           
1 56137U 23046AX  25244.28500489  .00000598  00000+0  59338-4 0  9993
2 56137  43.0042  94.8739 0001213 270.9775  89.0929 15.02536778133728
